CCSDS_OMM_VERS = 2.0
CREATION_DATE  = 
ORIGINATOR     = 

OBJECT_NAME    = TWILIGHT AK
OBJECT_ID      = 2026-004AK
CENTER_NAME    = EARTH
REF_FRAME      = TEME
TIME_SYSTEM    = UTC
MEAN_ELEMENT_THEORY = SGP/SGP4

EPOCH          = 2026-01-28T22:54:18.347328
MEAN_MOTION    = 15.17745246
ECCENTRICITY   = .00087819
INCLINATION    = 97.4497
RA_OF_ASC_NODE = 30.0492
ARG_OF_PERICENTER = 98.7961
MEAN_ANOMALY   = 261.4268

EPHEMERIS_TYPE = 0
CLASSIFICATION_TYPE = U
NORAD_CAT_ID   = 67396
ELEMENT_SET_NO = 999
REV_AT_EPOCH   = 263
BSTAR          = .31716672E-3
MEAN_MOTION_DOT = .6342E-4
MEAN_MOTION_DDOT = 0

CCSDS_OMM_VERS = 2.0
CREATION_DATE  = 
ORIGINATOR     = 

OBJECT_NAME    = TWILIGHT AL
OBJECT_ID      = 2026-004AL
CENTER_NAME    = EARTH
REF_FRAME      = TEME
TIME_SYSTEM    = UTC
MEAN_ELEMENT_THEORY = SGP/SGP4

EPOCH          = 2026-01-28T22:57:12.288672
MEAN_MOTION    = 15.17728170
ECCENTRICITY   = .00076216
INCLINATION    = 97.4516
RA_OF_ASC_NODE = 30.0518
ARG_OF_PERICENTER = 105.9567
MEAN_ANOMALY   = 254.2507

EPHEMERIS_TYPE = 0
CLASSIFICATION_TYPE = U
NORAD_CAT_ID   = 67397
ELEMENT_SET_NO = 999
REV_AT_EPOCH   = 263
BSTAR          = .12143623E-3
MEAN_MOTION_DOT = .2384E-4
MEAN_MOTION_DDOT = 0

CCSDS_OMM_VERS = 2.0
CREATION_DATE  = 
ORIGINATOR     = 

OBJECT_NAME    = TWILIGHT AM
OBJECT_ID      = 2026-004AM
CENTER_NAME    = EARTH
REF_FRAME      = TEME
TIME_SYSTEM    = UTC
MEAN_ELEMENT_THEORY = SGP/SGP4

EPOCH          = 2026-01-28T22:53:27.976992
MEAN_MOTION    = 15.17861609
ECCENTRICITY   = .00086556
INCLINATION    = 97.4555
RA_OF_ASC_NODE = 30.0633
ARG_OF_PERICENTER = 107.6370
MEAN_ANOMALY   = 252.5809

EPHEMERIS_TYPE = 0
CLASSIFICATION_TYPE = U
NORAD_CAT_ID   = 67398
ELEMENT_SET_NO = 999
REV_AT_EPOCH   = 263
BSTAR          = .44410478E-3
MEAN_MOTION_DOT = .8939E-4
MEAN_MOTION_DDOT = 0

CCSDS_OMM_VERS = 2.0
CREATION_DATE  = 
ORIGINATOR     = 

OBJECT_NAME    = TWILIGHT AN
OBJECT_ID      = 2026-004AN
CENTER_NAME    = EARTH
REF_FRAME      = TEME
TIME_SYSTEM    = UTC
MEAN_ELEMENT_THEORY = SGP/SGP4

EPOCH          = 2026-01-28T22:50:54.425184
MEAN_MOTION    = 15.18015599
ECCENTRICITY   = .00094067
INCLINATION    = 97.4544
RA_OF_ASC_NODE = 30.0630
ARG_OF_PERICENTER = 107.4584
MEAN_ANOMALY   = 252.7679

EPHEMERIS_TYPE = 0
CLASSIFICATION_TYPE = U
NORAD_CAT_ID   = 67399
ELEMENT_SET_NO = 999
REV_AT_EPOCH   = 263
BSTAR          = .45549529E-3
MEAN_MOTION_DOT = .9213E-4
MEAN_MOTION_DDOT = 0

CCSDS_OMM_VERS = 2.0
CREATION_DATE  = 
ORIGINATOR     = 

OBJECT_NAME    = CONNECTA IOT-13
OBJECT_ID      = 2026-004AP
CENTER_NAME    = EARTH
REF_FRAME      = TEME
TIME_SYSTEM    = UTC
MEAN_ELEMENT_THEORY = SGP/SGP4

EPOCH          = 2026-01-28T22:45:47.288736
MEAN_MOTION    = 15.18309344
ECCENTRICITY   = .00108748
INCLINATION    = 97.4542
RA_OF_ASC_NODE = 30.0672
ARG_OF_PERICENTER = 108.0951
MEAN_ANOMALY   = 252.1468

EPHEMERIS_TYPE = 0
CLASSIFICATION_TYPE = U
NORAD_CAT_ID   = 67400
ELEMENT_SET_NO = 999
REV_AT_EPOCH   = 263
BSTAR          = .51730926E-3
MEAN_MOTION_DOT = .10567E-3
MEAN_MOTION_DDOT = 0

CCSDS_OMM_VERS = 2.0
CREATION_DATE  = 
ORIGINATOR     = 

OBJECT_NAME    = CONNECTA IOT-14
OBJECT_ID      = 2026-004AQ
CENTER_NAME    = EARTH
REF_FRAME      = TEME
TIME_SYSTEM    = UTC
MEAN_ELEMENT_THEORY = SGP/SGP4

EPOCH          = 2026-01-28T22:44:04.153920
MEAN_MOTION    = 15.18425246
ECCENTRICITY   = .00115748
INCLINATION    = 97.4484
RA_OF_ASC_NODE = 30.0556
ARG_OF_PERICENTER = 103.4310
MEAN_ANOMALY   = 256.8215

EPHEMERIS_TYPE = 0
CLASSIFICATION_TYPE = U
NORAD_CAT_ID   = 67401
ELEMENT_SET_NO = 999
REV_AT_EPOCH   = 263
BSTAR          = .73807294E-3
MEAN_MOTION_DOT = .15168E-3
MEAN_MOTION_DDOT = 0

CCSDS_OMM_VERS = 2.0
CREATION_DATE  = 
ORIGINATOR     = 

OBJECT_NAME    = CONNECTA IOT-15
OBJECT_ID      = 2026-004AR
CENTER_NAME    = EARTH
REF_FRAME      = TEME
TIME_SYSTEM    = UTC
MEAN_ELEMENT_THEORY = SGP/SGP4

EPOCH          = 2026-01-28T23:09:56.793888
MEAN_MOTION    = 15.16836959
ECCENTRICITY   = .00048796
INCLINATION    = 97.4542
RA_OF_ASC_NODE = 30.0467
ARG_OF_PERICENTER = 87.8824
MEAN_ANOMALY   = 272.2968

EPHEMERIS_TYPE = 0
CLASSIFICATION_TYPE = U
NORAD_CAT_ID   = 67402
ELEMENT_SET_NO = 999
REV_AT_EPOCH   = 262
BSTAR          = .5127128E-3
MEAN_MOTION_DOT = .10026E-3
MEAN_MOTION_DDOT = 0

CCSDS_OMM_VERS = 2.0
CREATION_DATE  = 
ORIGINATOR     = 

OBJECT_NAME    = SHIJIAN-29B (SJ-29B)
OBJECT_ID      = 2025-315C
CENTER_NAME    = EARTH
REF_FRAME      = TEME
TIME_SYSTEM    = UTC
MEAN_ELEMENT_THEORY = SGP/SGP4

EPOCH          = 2026-01-28T17:23:58.335072
MEAN_MOTION    = 1.00273620
ECCENTRICITY   = .00011951
INCLINATION    = 3.0439
RA_OF_ASC_NODE = 98.7760
ARG_OF_PERICENTER = 312.8117
MEAN_ANOMALY   = 50.4897

EPHEMERIS_TYPE = 0
CLASSIFICATION_TYPE = U
NORAD_CAT_ID   = 67403
ELEMENT_SET_NO = 999
REV_AT_EPOCH   = 29
BSTAR          = 0
MEAN_MOTION_DOT = -.67E-6
MEAN_MOTION_DDOT = 0

CCSDS_OMM_VERS = 2.0
CREATION_DATE  = 
ORIGINATOR     = 

OBJECT_NAME    = STARLINK-36484
OBJECT_ID      = 2026-005A
CENTER_NAME    = EARTH
REF_FRAME      = TEME
TIME_SYSTEM    = UTC
MEAN_ELEMENT_THEORY = SGP/SGP4

EPOCH          = 2026-01-28T22:00:01.999584
MEAN_MOTION    = 15.66838985
ECCENTRICITY   = .0001274
INCLINATION    = 43.0006
RA_OF_ASC_NODE = 107.1588
ARG_OF_PERICENTER = 271.4868
MEAN_ANOMALY   = 2.2710

EPHEMERIS_TYPE = 0
CLASSIFICATION_TYPE = U
NORAD_CAT_ID   = 67404
ELEMENT_SET_NO = 999
REV_AT_EPOCH   = 374
BSTAR          = -.21532041E-1
MEAN_MOTION_DOT = -.2054094E-1
MEAN_MOTION_DDOT = 0

CCSDS_OMM_VERS = 2.0
CREATION_DATE  = 
ORIGINATOR     = 

OBJECT_NAME    = STARLINK-36452
OBJECT_ID      = 2026-005B
CENTER_NAME    = EARTH
REF_FRAME      = TEME
TIME_SYSTEM    = UTC
MEAN_ELEMENT_THEORY = SGP/SGP4

EPOCH          = 2026-01-28T22:00:01.999584
MEAN_MOTION    = 15.66839321
ECCENTRICITY   = .00012882
INCLINATION    = 43.0007
RA_OF_ASC_NODE = 107.1541
ARG_OF_PERICENTER = 271.0593
MEAN_ANOMALY   = 4.6168

EPHEMERIS_TYPE = 0
CLASSIFICATION_TYPE = U
NORAD_CAT_ID   = 67405
ELEMENT_SET_NO = 999
REV_AT_EPOCH   = 374
BSTAR          = -.21550044E-1
MEAN_MOTION_DOT = -.2055632E-1
MEAN_MOTION_DDOT = 0

CCSDS_OMM_VERS = 2.0
CREATION_DATE  = 
ORIGINATOR     = 

OBJECT_NAME    = STARLINK-36409
OBJECT_ID      = 2026-005C
CENTER_NAME    = EARTH
REF_FRAME      = TEME
TIME_SYSTEM    = UTC
MEAN_ELEMENT_THEORY = SGP/SGP4

EPOCH          = 2026-01-28T22:00:01.999584
MEAN_MOTION    = 15.66835655
ECCENTRICITY   = .00012038
INCLINATION    = 43.0008
RA_OF_ASC_NODE = 107.1486
ARG_OF_PERICENTER = 269.6061
MEAN_ANOMALY   = 7.9893

EPHEMERIS_TYPE = 0
CLASSIFICATION_TYPE = U
NORAD_CAT_ID   = 67406
ELEMENT_SET_NO = 999
REV_AT_EPOCH   = 379
BSTAR          = -.21498775E-1
MEAN_MOTION_DOT = -.2051015E-1
MEAN_MOTION_DDOT = 0

CCSDS_OMM_VERS = 2.0
CREATION_DATE  = 
ORIGINATOR     = 

OBJECT_NAME    = STARLINK-36510
OBJECT_ID      = 2026-005D
CENTER_NAME    = EARTH
REF_FRAME      = TEME
TIME_SYSTEM    = UTC
MEAN_ELEMENT_THEORY = SGP/SGP4

EPOCH          = 2026-01-28T22:00:01.999584
MEAN_MOTION    = 15.66839086
ECCENTRICITY   = .00013886
INCLINATION    = 43.0006
RA_OF_ASC_NODE = 107.1440
ARG_OF_PERICENTER = 268.9000
MEAN_ANOMALY   = 10.6111

EPHEMERIS_TYPE = 0
CLASSIFICATION_TYPE = U
NORAD_CAT_ID   = 67407
ELEMENT_SET_NO = 999
REV_AT_EPOCH   = 379
BSTAR          = -.21542491E-1
MEAN_MOTION_DOT = -.2055067E-1
MEAN_MOTION_DDOT = 0

