TWILIGHT AK             
1 67396U 26004AK  26028.95437902  .00006342  00000+0  31717-3 0  9996
2 67396  97.4497  30.0492 0008781  98.7961 261.4268 15.17745246  2637
TWILIGHT AL             
1 67397U 26004AL  26028.95639223  .00002384  00000+0  12144-3 0  9992
2 67397  97.4516  30.0518 0007621 105.9567 254.2507 15.17728170  2637
TWILIGHT AM             
1 67398U 26004AM  26028.95379603  .00008939  00000+0  44410-3 0  9999
2 67398  97.4555  30.0633 0008655 107.6370 252.5809 15.17861609  2639
TWILIGHT AN             
1 67399U 26004AN  26028.95201881  .00009213  00000+0  45550-3 0  9994
2 67399  97.4544  30.0630 0009406 107.4584 252.7679 15.18015599  2632
CONNECTA IOT-13         
1 67400U 26004AP  26028.94846399  .00010567  00000+0  51731-3 0  9997
2 67400  97.4542  30.0672 0010874 108.0951 252.1468 15.18309344  2639
CONNECTA IOT-14         
1 67401U 26004AQ  26028.94727030  .00015168  00000+0  73807-3 0  9998
2 67401  97.4484  30.0556 0011574 103.4310 256.8215 15.18425246  2633
CONNECTA IOT-15         
1 67402U 26004AR  26028.96524067  .00010026  00000+0  51271-3 0  9995
2 67402  97.4542  30.0467 0004879  87.8824 272.2968 15.16836959  2626
SHIJIAN-29B (SJ-29B)    
1 67403U 25315C   26028.72498073 -.00000067  00000+0  00000+0 0  9996
2 67403   3.0439  98.7760 0001195 312.8117  50.4897  1.00273620   292
STARLINK-36484          
1 67404U 26005A   26028.91668981 -.02054094  00000+0 -21532-1 0  9999
2 67404  43.0006 107.1588 0001274 271.4868   2.2710 15.66838985  3741
STARLINK-36452          
1 67405U 26005B   26028.91668981 -.02055632  00000+0 -21550-1 0  9999
2 67405  43.0007 107.1541 0001288 271.0593   4.6168 15.66839321  3746
STARLINK-36409          
1 67406U 26005C   26028.91668981 -.02051015  00000+0 -21499-1 0  9993
2 67406  43.0008 107.1486 0001203 269.6061   7.9893 15.66835655  3798
STARLINK-36510          
1 67407U 26005D   26028.91668981 -.02055067  00000+0 -21542-1 0  9994
2 67407  43.0006 107.1440 0001388 268.9000  10.6111 15.66839086  3792
